STARLINK-6261           
1 56417U 23061AV  26196.04750286 -.00001164  00000+0 -32794-4 0  9993
2 56417  43.0036 187.6732 0001839 278.6542  81.4101 15.27571536176359
STARLINK-5356           
1 56418U 23061AW  26196.01117877 -.00000628  00000+0 -13315-4 0  9996
2 56418  43.0018 180.3519 0001134 274.3667  85.7055 15.27577554176432
STARLINK-5350           
1 56419U 23061AX  26196.00010428 -.00001003  00000+0 -26926-4 0  9990
2 56419  43.0005 188.1740 0001320 280.1433  79.9270 15.27571414176347
STARLINK-6272           
1 56420U 23061AY  26195.95350595 -.00000127  00000+0  49076-5 0  9994
2 56420  43.0029 180.7853 0001830 293.7195  66.3465 15.27575072176428
STARLINK-6270           
1 56421U 23061AZ  26196.03510128 -.00001093  00000+0 -30214-4 0  9992
2 56421  43.0035 183.9457 0001552 270.2650  89.8024 15.27571997176397
STARLINK-6236           
1 56422U 23061BA  26196.02917013  .00000208  00000+0  17070-4 0  9996
2 56422  43.0001 180.4870 0001190 239.5612 120.5122 15.27575536176436
STARLINK-6239           
1 56423U 23061BB  26196.02273863 -.00001349  00000+0 -39484-4 0  9997
2 56423  43.0039 180.4431 0001559 269.0424  91.0249 15.27579767176431
STARLINK-6242           
1 56424U 23061BC  26195.44840728 -.00000678  00000+0 -15124-4 0  9992
2 56424  43.0009 183.8720 0001113 275.9562  84.1162 15.27573490176346
STARLINK-6224           
1 56425U 23061BD  26196.03302719 -.00000001  00000+0  95002-5 0  9995
2 56425  43.0018 180.5174 0001383 267.2485  92.8209 15.27575394176434
STARLINK-5352           
1 56426U 23061BE  26195.98307150  .00000469  00000+0  26569-4 0  9991
2 56426  42.9989 180.9856 0000653 200.7188 159.3637 15.27577058176424
STARLINK-5724           
1 56427U 23061BF  26195.98562553 -.00000093  00000+0  61547-5 0  9992
2 56427  43.0015 181.0098 0001186 272.6695  87.4021 15.27562789176423
STARLINK-6238           
1 56428U 23061BG  26196.04073714 -.00000033  00000+0  83131-5 0  9994
2 56428  43.0022 180.5708 0001186 256.0052 104.0668 15.27572050176433
STARLINK-6264           
1 56429U 23061BH  26196.04459288 -.00001171  00000+0 -33024-4 0  9999
2 56429  43.0017 180.5981 0001530 270.4734  89.5942 15.27572358176434
STARLINK-5990           
1 56448U 23064A   26196.13005906  .00000534  00000+0  52568-4 0  9991
2 56448  69.9994 183.2011 0003656 264.6751  95.3991 14.98320693174331
STARLINK-5993           
1 56449U 23064B   26196.15077582  .00000318  00000+0  34424-4 0  9994
2 56449  69.9995 183.2733 0003187 265.3911  94.6884 14.98333732174330
STARLINK-5970           
1 56450U 23064C   26196.12588160  .00000446  00000+0  45202-4 0  9990
2 56450  69.9997 183.1868 0002992 270.8460  89.2356 14.98330452174335
STARLINK-5985           
1 56451U 23064D   26196.14658753  .00000197  00000+0  24352-4 0  9995
2 56451  69.9996 183.2584 0003012 268.0324  92.0490 14.98318285174334
STARLINK-5986           
1 56452U 23064E   26196.14240701 -.00000006  00000+0  73365-5 0  9995
2 56452  69.9996 183.2445 0003413 266.4598  93.6171 14.98330954174331
STARLINK-5935           
1 56453U 23064F   26196.13823329  .00000071  00000+0  13781-4 0  9994
2 56453  69.9995 183.2293 0003529 262.2118  97.8640 14.98331013174336
STARLINK-5959           
1 56454U 23064G   26196.18412743  .00000403  00000+0  41530-4 0  9996
2 56454  69.9989 182.9887 0003525 270.8693  89.2062 14.98333186174341
STARLINK-5987           
1 56455U 23064H   26196.17995181  .00000187  00000+0  23504-4 0  9998
2 56455  69.9993 182.9722 0003635 264.5289  95.5455 14.98337150174349
STARLINK-5995           
1 56456U 23064J   26196.12571376 -.00000154  00000+0 -51035-5 0  9997
2 56456  69.9996 183.1854 0003344 265.2170  94.8607 14.98337550174330
STARLINK-5994           
1 56457U 23064K   26196.12155043 -.00001319  00000+0 -10276-3 0  9991
2 56457  69.9998 183.1700 0003106 269.2992  90.7812 14.98325528174330
STARLINK-6050           
1 56458U 23064L   26196.12988528  .00000518  00000+0  51217-4 0  9993
2 56458  69.9992 183.1987 0003868 258.1250 101.9475 14.98332317174335
STARLINK-6048           
1 56459U 23064M   26196.16341834  .00000024  00000+0  98264-5 0  9997
2 56459  69.9990 182.9152 0003561 265.3314  94.7439 14.98329225174339
STARLINK-6047           
1 56460U 23064N   26196.17577641 -.00000783  00000+0 -57818-4 0  9990
2 56460  69.9994 182.9581 0003631 261.3339  98.7409 14.98333056174341
STARLINK-6037           
1 56461U 23064P   26196.15909736  .00000194  00000+0  24075-4 0  9996
2 56461  69.9992 182.8993 0003668 274.0446  86.0293 14.98324448174342
STARLINK-6045           
1 56462U 23064Q   26196.17965090  .00000440  00000+0  44684-4 0  9996
2 56462  69.9999 142.8035 0003344 264.5575  95.5202 14.98330055175337
STARLINK-6051           
1 56463U 23064R   26196.13406384 -.00005210  00000+0 -42891-3 0  9998
2 56463  69.9997 183.2066 0003605 275.6806  84.3942 14.98349977174338
STARLINK-6043           
1 56464U 23064S   26196.17160317 -.00001112  00000+0 -85380-4 0  9994
2 56464  69.9993 182.9432 0003710 269.0670  91.0064 14.98342807174347
