OBJECT_NAME,OBJECT_ID,EPOCH,MEAN_MOTION,ECCENTRICITY,INCLINATION,RA_OF_ASC_NODE,ARG_OF_PERICENTER,MEAN_ANOMALY,EPHEMERIS_TYPE,CLASSIFICATION_TYPE,NORAD_CAT_ID,ELEMENT_SET_NO,REV_AT_EPOCH,BSTAR,MEAN_MOTION_DOT,MEAN_MOTION_DDOT
STARLINK-6261,2023-061AV,2026-07-15T01:08:24.247104,15.27571536,.0001839,43.0036,187.6732,278.6542,81.4101,0,U,56417,999,17635,-.32794E-4,-.1164E-4,0
STARLINK-5356,2023-061AW,2026-07-15T00:16:05.845728,15.27577554,.0001134,43.0018,180.3519,274.3667,85.7055,0,U,56418,999,17643,-.13315E-4,-.628E-5,0
STARLINK-5350,2023-061AX,2026-07-15T00:00:09.009792,15.27571414,.000132,43.0005,188.1740,280.1433,79.9270,0,U,56419,999,17634,-.26926E-4,-.1003E-4,0
STARLINK-6272,2023-061AY,2026-07-14T22:53:02.914080,15.27575072,.000183,43.0029,180.7853,293.7195,66.3465,0,U,56420,999,17642,.49076E-5,-.127E-5,0
STARLINK-6270,2023-061AZ,2026-07-15T00:50:32.750592,15.27571997,.0001552,43.0035,183.9457,270.2650,89.8024,0,U,56421,999,17639,-.30214E-4,-.1093E-4,0
STARLINK-6236,2023-061BA,2026-07-15T00:42:00.299232,15.27575536,.000119,43.0001,180.4870,239.5612,120.5122,0,U,56422,999,17643,.1707E-4,.208E-5,0
STARLINK-6239,2023-061BB,2026-07-15T00:32:44.617632,15.27579767,.0001559,43.0039,180.4431,269.0424,91.0249,0,U,56423,999,17643,-.39484E-4,-.1349E-4,0
STARLINK-6242,2023-061BC,2026-07-14T10:45:42.388992,15.27573490,.00011137,43.0009,183.8720,275.9562,84.1162,0,U,56424,999,17634,-.15123769E-4,-.678E-5,0
STARLINK-6224,2023-061BD,2026-07-15T00:47:33.549216,15.27575394,.0001383,43.0018,180.5174,267.2485,92.8209,0,U,56425,999,17643,.95002E-5,-.1E-7,0
STARLINK-5352,2023-061BE,2026-07-14T23:35:37.377600,15.27577058,.0000653,42.9989,180.9856,200.7188,159.3637,0,U,56426,999,17642,.26569E-4,.469E-5,0
STARLINK-5724,2023-061BF,2026-07-14T23:39:18.045792,15.27562789,.0001186,43.0015,181.0098,272.6695,87.4021,0,U,56427,999,17642,.61547E-5,-.93E-6,0
STARLINK-6238,2023-061BG,2026-07-15T00:58:39.688896,15.27572050,.0001186,43.0022,180.5708,256.0052,104.0668,0,U,56428,999,17643,.83131E-5,-.33E-6,0
STARLINK-6264,2023-061BH,2026-07-15T01:04:12.824832,15.27572358,.000153,43.0017,180.5981,270.4734,89.5942,0,U,56429,999,17643,-.33024E-4,-.1171E-4,0
STARLINK-5990,2023-064A,2026-07-15T03:07:17.102784,14.98320693,.0003656,69.9994,183.2011,264.6751,95.3991,0,U,56448,999,17433,.52568E-4,.534E-5,0
STARLINK-5993,2023-064B,2026-07-15T03:37:07.030848,14.98333732,.0003187,69.9995,183.2733,265.3911,94.6884,0,U,56449,999,17433,.34424E-4,.318E-5,0
STARLINK-5970,2023-064C,2026-07-15T03:01:16.170240,14.98330452,.0002992,69.9997,183.1868,270.8460,89.2356,0,U,56450,999,17433,.45202E-4,.446E-5,0
STARLINK-5985,2023-064D,2026-07-15T03:31:05.162592,14.98318285,.0003012,69.9996,183.2584,268.0324,92.0490,0,U,56451,999,17433,.24352E-4,.197E-5,0
STARLINK-5986,2023-064E,2026-07-15T03:25:03.965664,14.98330954,.0003413,69.9996,183.2445,266.4598,93.6171,0,U,56452,999,17433,.73365E-5,-.6E-7,0
STARLINK-5935,2023-064F,2026-07-15T03:19:03.356256,14.98331013,.0003529,69.9995,183.2293,262.2118,97.8640,0,U,56453,999,17433,.13781E-4,.71E-6,0
STARLINK-5959,2023-064G,2026-07-15T04:25:08.609952,14.98333186,.0003525,69.9989,182.9887,270.8693,89.2062,0,U,56454,999,17434,.4153E-4,.403E-5,0
STARLINK-5987,2023-064H,2026-07-15T04:19:07.836384,14.98337150,.0003635,69.9993,182.9722,264.5289,95.5455,0,U,56455,999,17434,.23504E-4,.187E-5,0
STARLINK-5995,2023-064J,2026-07-15T03:01:01.668864,14.98337550,.0003344,69.9996,183.1854,265.2170,94.8607,0,U,56456,999,17433,-.51035E-5,-.154E-5,0
STARLINK-5994,2023-064K,2026-07-15T02:55:01.957152,14.98325528,.0003106,69.9998,183.1700,269.2992,90.7812,0,U,56457,999,17433,-.10276E-3,-.1319E-4,0
STARLINK-6050,2023-064L,2026-07-15T03:07:02.088192,14.98332317,.0003868,69.9992,183.1987,258.1250,101.9475,0,U,56458,999,17433,.51217E-4,.518E-5,0
STARLINK-6048,2023-064M,2026-07-15T03:55:19.344576,14.98329225,.0003561,69.9990,182.9152,265.3314,94.7439,0,U,56459,999,17433,.98264E-5,.24E-6,0
STARLINK-6047,2023-064N,2026-07-15T04:13:07.081824,14.98333056,.0003631,69.9994,182.9581,261.3339,98.7409,0,U,56460,999,17434,-.57818E-4,-.783E-5,0
STARLINK-6037,2023-064P,2026-07-15T03:49:06.011904,14.98324448,.0003668,69.9992,182.8993,274.0446,86.0293,0,U,56461,999,17434,.24075E-4,.194E-5,0
STARLINK-6045,2023-064Q,2026-07-15T04:18:41.837760,14.98330055,.0003344,69.9999,142.8035,264.5575,95.5202,0,U,56462,999,17533,.44684E-4,.44E-5,0
STARLINK-6051,2023-064R,2026-07-15T03:13:03.115776,14.98349977,.0003605,69.9997,183.2066,275.6806,84.3942,0,U,56463,999,17433,-.42891E-3,-.521E-4,0
STARLINK-6043,2023-064S,2026-07-15T04:07:06.513888,14.98342807,.000371,69.9993,182.9432,269.0670,91.0064,0,U,56464,999,17434,-.8538E-4,-.1112E-4,0
